NORAD_CAT_ID,OBJECT_NAME,OBJECT_TYPE,EPOCH,MEAN_MOTION,ECCENTRICITY,INCLINATION,RA_OF_ASC_NODE,ARG_OF_PERICENTER,MEAN_ANOMALY,BSTAR,MEAN_MOTION_DOT,MEAN_MOTION_DDOT,TLE_LINE0,TLE_LINE1,TLE_LINE2,SEMIMAJOR_AXIS,PERIOD,APOGEE,PERIGEE,DECAYED
52663.0,STARLINK-4037,PAYLOAD,2024-03-10 16:49:12,15.08847146,0.0001099,53.2169,186.6755,91.6333,268.4785,8.8515e-05,1.121e-05,0.0,0 STARLINK-4037,1 52663U 22053H   24070.70083522  .00001121  00000-0  88515-4 0  9990,2 52663  53.2169 186.6755 0001099  91.6333 268.4785 15.08847146100995,6917.859,95.437,540.484,538.963,0.0
52663.0,STARLINK-4037,PAYLOAD,2024-03-11 00:46:08,15.08837989,0.0001016,53.2152,185.1889,95.7247,264.3861,0.00020854,3.033e-05,0.0,0 STARLINK-4037,1 52663U 22053H   24071.03204027  .00003033  00000-0  20854-3 0  9997,2 52663  53.2152 185.1889 0001016  95.7247 264.3861 15.08837989101048,6917.887,95.438,540.454,539.049,0.0
52663.0,STARLINK-4037,PAYLOAD,2024-03-11 13:29:13,15.08844778,0.0001052,53.214,182.8124,95.4139,264.6973,0.00025337,3.747e-05,0.0,0 STARLINK-4037,1 52663U 22053H   24071.56195821  .00003747  00000-0  25337-3 0  9999,2 52663  53.2140 182.8124 0001052  95.4139 264.6973 15.08844778101128,6917.866,95.437,540.459,539.003,0.0
52663.0,STARLINK-4037,PAYLOAD,2024-03-12 13:19:59,15.08834614,0.0001257,53.2192,178.3504,93.5752,266.5384,-2.2451e-05,-6.45e-06,0.0,0 STARLINK-4037,1 52663U 22053H   24072.55555109 -.00000645  00000-0 -22451-4 0  9999,2 52663  53.2192 178.3504 0001257  93.5752 266.5384 15.08834614101275,6917.897,95.438,540.631,538.892,0.0
52663.0,STARLINK-4037,PAYLOAD,2024-03-13 13:10:46,15.08838257,0.0001354,53.2167,173.8916,90.079,270.0357,-7.052e-06,-4e-06,0.0,0 STARLINK-4037,1 52663U 22053H   24073.54915222 -.00000400  00000-0 -70520-5 0  9995,2 52663  53.2167 173.8916 0001354  90.0790 270.0357 15.08838257101420,6917.886,95.438,540.687,538.814,0.0
52663.0,STARLINK-4037,PAYLOAD,2024-03-14 06:40:01,15.08834964,0.0001435,53.2164,170.6209,85.3433,274.7723,0.00041747,6.361e-05,0.0,0 STARLINK-4037,1 52663U 22053H   24074.27779851  .00006361  00000-0  41747-3 0  9999,2 52663  53.2164 170.6209 0001435  85.3433 274.7723 15.08834964101539,6917.896,95.438,540.754,538.768,0.0
52663.0,STARLINK-4037,PAYLOAD,2024-03-14 11:26:11,15.08843392,0.0001457,53.2163,169.7292,85.2768,274.8391,0.00054182,8.346e-05,0.0,0 STARLINK-4037,1 52663U 22053H   24074.47651690  .00008346  00000-0  54182-3 0  9993,2 52663  53.2163 169.7292 0001457  85.2768 274.8391 15.08843392101563,6917.87,95.437,540.743,538.727,0.0
52663.0,STARLINK-4037,PAYLOAD,2024-03-14 16:12:20,15.08853863,0.0001441,53.2153,168.8348,87.515,272.6007,0.00067762,0.00010517,0.0,0 STARLINK-4037,1 52663U 22053H   24074.67523350  .00010517  00000-0  67762-3 0  9997,2 52663  53.2153 168.8348 0001441  87.5150 272.6007 15.08853863101594,6917.838,95.437,540.7,538.706,0.0
52663.0,STARLINK-4037,PAYLOAD,2024-03-15 11:16:58,15.08839231,0.0001468,53.2155,165.2683,95.0036,265.1124,0.00015631,2.201e-05,0.0,0 STARLINK-4037,1 52663U 22053H   24075.47011961  .00002201  00000-0  15631-3 0  9995,2 52663  53.2155 165.2683 0001468  95.0036 265.1124 15.08839231101719,6917.883,95.438,540.763,538.732,0.0
52663.0,STARLINK-4037,PAYLOAD,2024-03-16 11:07:45,15.08836359,0.0001535,53.2155,160.8074,101.2951,258.8214,0.00027236,4.049e-05,0.0,0 STARLINK-4037,1 52663U 22053H   24076.46372479  .00004049  00000-0  27236-3 0  9995,2 52663  53.2155 160.8074 0001535 101.2951 258.8214 15.08836359101868,6917.892,95.438,540.818,538.695,0.0
52663.0,STARLINK-4037,PAYLOAD,2024-03-17 12:33:56,15.0883798,0.0001429,53.2155,156.0542,86.0852,274.0303,0.0001554,2.186e-05,0.0,0 STARLINK-4037,1 52663U 22053H   24077.52356935  .00002186  00000-0  15540-3 0  9997,2 52663  53.2155 156.0542 0001429  86.0852 274.0303 15.08837980102026,6917.887,95.438,540.74,538.763,0.0
52663.0,STARLINK-4037,PAYLOAD,2024-03-17 14:09:19,15.08840309,0.0001416,53.2151,155.7547,86.1086,274.0068,0.00019317,2.788e-05,0.0,0 STARLINK-4037,1 52663U 22053H   24077.58980829  .00002788  00000-0  19317-3 0  9992,2 52663  53.2151 155.7547 0001416  86.1086 274.0068 15.08840309102037,6917.879,95.438,540.724,538.765,0.0
52663.0,STARLINK-4037,PAYLOAD,2024-03-18 12:24:43,15.08848308,0.0001679,53.2162,151.5877,71.6004,288.5171,0.00029929,4.479e-05,0.0,0 STARLINK-4037,1 52663U 22053H   24078.51716685  .00004479  00000-0  29929-3 0  9992,2 52663  53.2162 151.5877 0001679  71.6004 288.5171 15.08848308102176,6917.855,95.437,540.882,538.558,0.0
52663.0,STARLINK-4037,PAYLOAD,2024-03-19 04:18:34,15.0885094,0.0001804,53.2161,148.6199,69.4283,290.6903,0.00023868,3.514e-05,0.0,0 STARLINK-4037,1 52663U 22053H   24079.17956531  .00003514  00000-0  23868-3 0  9996,2 52663  53.2161 148.6199 0001804  69.4283 290.6903 15.08850940102276,6917.847,95.437,540.96,538.464,0.0
52663.0,STARLINK-4037,PAYLOAD,2024-03-19 12:15:30,15.08852431,0.0001985,53.2161,147.1326,65.7589,294.361,0.00049429,7.59e-05,0.0,0 STARLINK-4037,1 52663U 22053H   24079.51076502  .00007590  00000-0  49429-3 0  9994,2 52663  53.2161 147.1326 0001985  65.7589 294.3610 15.08852431102329,6917.842,95.437,541.081,538.334,0.0
52663.0,STARLINK-4037,PAYLOAD,2024-03-20 10:30:54,15.08839333,0.000179,53.2162,142.9692,70.6479,289.4706,2.9992e-06,-2.4e-06,0.0,0 STARLINK-4037,1 52663U 22053H   24080.43812784 -.00000240  00000-0  29992-5 0  9998,2 52663  53.2162 142.9692 0001790  70.6479 289.4706 15.08839333102468,6917.882,95.438,540.986,538.509,0.0
52663.0,STARLINK-4037,PAYLOAD,2024-03-20 21:38:36,15.08839894,0.0001707,53.2154,140.8863,75.9433,284.1749,9.4456e-05,1.216e-05,0.0,0 STARLINK-4037,1 52663U 22053H   24080.90180852  .00001216  00000-0  94456-4 0  9993,2 52663  53.2154 140.8863 0001707  75.9433 284.1749 15.08839894102531,6917.881,95.438,540.927,538.565,0.0
52663.0,STARLINK-4037,PAYLOAD,2024-03-21 10:21:41,15.08844238,0.0001664,53.2162,138.506,89.3231,270.7952,5.4528e-05,5.8e-06,0.0,0 STARLINK-4037,1 52663U 22053H   24081.43172740  .00000580  00000-0  54528-4 0  9998,2 52663  53.2162 138.5060 0001664  89.3231 270.7952 15.08844238102614,6917.867,95.437,540.884,538.581,0.0
52663.0,STARLINK-4037,PAYLOAD,2024-03-22 03:50:55,15.08847597,0.0001745,53.2166,135.2357,87.5436,272.5756,0.00030736,4.608e-05,0.0,0 STARLINK-4037,1 52663U 22053H   24082.16036641  .00004608  00000-0  30736-3 0  9997,2 52663  53.2166 135.2357 0001745  87.5436 272.5756 15.08847597102723,6917.857,95.437,540.929,538.515,0.0
52663.0,STARLINK-4037,PAYLOAD,2024-03-22 10:12:26,15.08895946,0.0001952,53.2167,134.0461,86.4289,273.6926,0.0011506,0.00018099,0.0,0 STARLINK-4037,1 52663U 22053H   24082.42530520  .00018099  00000-0  11506-2 0  9993,2 52663  53.2167 134.0461 0001952  86.4289 273.6926 15.08895946102767,6917.709,95.434,540.925,538.224,0.0
52663.0,STARLINK-4037,PAYLOAD,2024-03-23 03:41:43,15.08828141,0.0002139,53.2167,130.7747,101.6543,258.469,-0.00022847,-3.921e-05,0.0,0 STARLINK-4037,1 52663U 22053H   24083.15397110 -.00003921  00000-0 -22847-3 0  9991,2 52663  53.2167 130.7747 0002139 101.6543 258.4690 15.08828141102872,6917.917,95.438,541.261,538.302,0.0
52663.0,STARLINK-4037,PAYLOAD,2024-03-23 10:03:16,15.08817943,0.0001589,53.2166,129.5859,91.4637,268.6537,-0.00038556,-6.415e-05,0.0,0 STARLINK-4037,1 52663U 22053H   24083.41893740 -.00006415  00000-0 -38556-3 0  9995,2 52663  53.2166 129.5859 0001589  91.4637 268.6537 15.08817943102915,6917.948,95.439,540.912,538.714,0.0
52663.0,STARLINK-4037,PAYLOAD,2024-03-24 01:57:07,15.08833793,0.000141,53.2153,126.6079,77.5017,282.6132,-8.8378e-05,-1.694e-05,0.0,0 STARLINK-4037,1 52663U 22053H   24084.08133520 -.00001694  00000-0 -88378-4 0  9994,2 52663  53.2153 126.6079 0001410  77.5017 282.6132 15.08833793103013,6917.899,95.438,540.74,538.789,0.0
52663.0,STARLINK-4037,PAYLOAD,2024-03-24 09:54:03,15.08852895,0.0001588,53.2162,125.1263,88.211,271.9064,0.0011677,0.00018351,0.0,0 STARLINK-4037,1 52663U 22053H   24084.41253539  .00018351  00000-0  11677-2 0  9996,2 52663  53.2162 125.1263 0001588  88.2110 271.9064 15.08852895103065,6917.841,95.437,540.805,538.607,0.0
52663.0,STARLINK-4037,PAYLOAD,2024-03-24 13:04:49,15.08866591,0.0001497,53.2159,124.5294,77.8962,282.2197,0.0015162,0.00023942,0.0,0 STARLINK-4037,1 52663U 22053H   24084.54501251  .00023942  00000-0  15162-2 0  9992,2 52663  53.2159 124.5294 0001497  77.8962 282.2197 15.08866591103088,6917.799,95.436,540.7,538.629,0.0
52663.0,STARLINK-4037,PAYLOAD,2024-03-24 19:26:22,15.08842027,0.0001902,53.2159,123.3394,84.1804,275.9405,0.0011121,0.00017456,0.0,0 STARLINK-4037,1 52663U 22053H   24084.80998131  .00017456  00000-0  11121-2 0  9992,2 52663  53.2159 123.3394 0001902  84.1804 275.9405 15.08842027103127,6917.874,95.437,541.055,538.423,0.0
52663.0,STARLINK-4037,PAYLOAD,2024-03-25 19:17:09,15.08849612,0.0001456,53.2146,118.8802,88.6286,271.4873,0.001216,0.00019123,0.0,0 STARLINK-4037,1 52663U 22053H   24085.80357900  .00019123  00000-0  12160-2 0  9993,2 52663  53.2146 118.8802 0001456  88.6286 271.4873 15.08849612103276,6917.851,95.437,540.723,538.709,0.0
52663.0,STARLINK-4037,PAYLOAD,2024-03-26 09:35:38,15.08820979,0.0001477,53.2144,116.2033,85.2244,274.8917,0.0017869,0.0002825,0.0,0 STARLINK-4037,1 52663U 22053H   24086.39975413  .00028250  00000-0  17869-2 0  9995,2 52663  53.2144 116.2033 0001477  85.2244 274.8917 15.08820979103363,6917.939,95.439,540.825,538.782,0.0
52663.0,STARLINK-4037,PAYLOAD,2024-03-26 19:07:57,15.08837128,0.0001468,53.2143,114.4185,87.1348,272.9812,0.0018027,0.00028516,0.0,0 STARLINK-4037,1 52663U 22053H   24086.79719669  .00028516  00000-0  18027-2 0  9990,2 52663  53.2143 114.4185 0001468  87.1348 272.9812 15.08837128103420,6917.889,95.438,540.77,538.739,0.0
52663.0,STARLINK-4037,PAYLOAD,2024-03-27 11:01:48,15.08875663,0.0001399,53.2148,111.4434,88.2416,271.8737,0.0016044,0.00025363,0.0,0 STARLINK-4037,1 52663U 22053H   24087.45958606  .00025363  00000-0  16044-2 0  9994,2 52663  53.2148 111.4434 0001399  88.2416 271.8737 15.08875663103521,6917.771,95.435,540.604,538.669,0.0
